STARLINK-30151          
1 56827U 23079E   23261.64077132  .00023574  00000+0  12720-2 0  9997
2 56827  43.0000 337.5684 0000690 318.4363  41.6432 15.14325841 17008
STARLINK-30152          
1 56828U 23079F   23261.63745993  .00047745  00000+0  25516-2 0  9997
2 56828  43.0010 337.5409 0001152 290.7032  69.3691 15.14374060 17005
STARLINK-30128          
1 56832U 23079K   23261.81725344 -.00002284  00000+0 -15408-3 0  9991
2 56832  42.9978 307.3641 0000827 305.2692  54.8073 15.02542274 10968
STARLINK-30131          
1 56833U 23079L   23261.91667824  .00014841  00000+0  10558-2 0  9991
2 56833  43.0002 306.9138 0001259 217.6214 347.5833 15.04469956  5924
STARLINK-30069          
1 56834U 23079M   23261.58970397  .00007054  00000+0  39003-3 0  9992
2 56834  42.9983 337.1862 0000911 304.0748  56.0013 15.14326010 17006
STARLINK-30144          
1 56835U 23079N   23261.63086848  .00043506  00000+0  23282-2 0  9991
2 56835  43.0011 337.4910 0001347 274.9795  85.0898 15.14363296 17009
STARLINK-30142          
1 56836U 23079P   23261.62757023  .00044216  00000+0  23664-2 0  9994
2 56836  43.0011 337.4662 0001493 267.9143  92.1532 15.14353865 17000
STARLINK-30133          
1 56837U 23079Q   23261.25398479  .00001482  00000+0  91724-4 0  9992
2 56837  43.0008 338.1087 0000433 257.8926 102.1872 15.14309603 16960
STARLINK-30123          
1 56838U 23079R   23261.60735354  .00026583  00000+0  19726-2 0  9998
2 56838  43.0017 334.6669 0001920 294.7992  65.2650 15.02590529 17031
STARLINK-30076          
1 56839U 23079S   23261.59233318  .00027554  00000+0  14835-2 0  9995
2 56839  43.0015 336.3493 0001002 289.6621  70.4118 15.14334212 17010
STARLINK-30073          
1 56840U 23079T   23261.22543805  .00000534  00000+0  52058-4 0  9992
2 56840  43.0011 323.9339 0000450 279.9452  80.1341 15.04487579 16793
STARLINK-30078          
1 56841U 23079U   23261.22192212  .00001681  00000+0  10234-3 0  9998
2 56841  43.0003 339.5818 0000833 309.0007  51.0765 15.14318300 16946
STARLINK-30135          
1 56842U 23079V   23261.91667824 -.00010578  00000+0 -76849-3 0  9992
2 56842  43.0003 332.8803 0000335 346.8038 302.2778 15.02569879  5845
STARLINK-30137          
1 56843U 23079W   23261.91667824 -.00642995  00000+0 -51340-1 0  9994
2 56843  43.0005 332.4376 0001100 263.0933 213.7198 15.02145922  5834
STARLINK-30136          
1 56844U 23079X   23261.22073148  .00000153  00000+0  25322-4 0  9995
2 56844  43.0001 336.9427 0000509 295.8373  64.2418 15.04495912 16970
STARLINK-6206           
1 56876U 23083A   23261.83951894  .00000259  00000+0  34251-4 0  9993
2 56876  43.0019 308.0125 0000916 272.2414  87.8324 15.02535935 15857
STARLINK-6209           
1 56877U 23083B   23261.83156258  .00052877  00000+0  39360-2 0  9992
2 56877  43.0020 307.9543 0001572 265.6486  94.4177 15.02187951 15857
STARLINK-6182           
1 56878U 23083C   23261.23988369  .00011354  00000+0  86311-3 0  9997
2 56878  43.0025 311.2547 0001346 255.1345 104.9348 15.02141850 14968
STARLINK-5707           
1 56879U 23083D   23261.83487946  .00053939  00000+0  40135-2 0  9997
2 56879  43.0030 307.9786 0001672 266.2987  93.7664 15.02193877 15850
STARLINK-6177           
1 56880U 23083E   23261.82508820  .00000021  00000+0  16613-4 0  9993
2 56880  43.0004 307.9016 0000929 279.9198  80.1540 15.02536700 15857
STARLINK-5853           
1 56881U 23083F   23261.82841735  .00000607  00000+0  59956-4 0  9996
2 56881  43.0011 307.9284 0000691 282.3964  77.6801 15.02540181 15857
STARLINK-6175           
1 56882U 23083G   23261.81955083 -.00001707  00000+0 -11136-3 0  9999
2 56882  43.0003 307.8616 0001212 275.0496  85.0208 15.02524167 15856
STARLINK-6171           
1 56883U 23083H   23261.82434742  .00000573  00000+0  58637-4 0  9991
2 56883  43.0016 307.8984 0001201 281.4731  78.5976 15.01727204 15855
STARLINK-5515           
1 56884U 23083J   23261.81305507 -.00051907  00000+0 -38197-2 0  9993
2 56884  43.0016 307.8119 0000966 285.3878  74.6858 15.02891076 15854
STARLINK-5095           
1 56885U 23083K   23261.81990672 -.00000081  00000+0  91600-5 0  9994
2 56885  43.0014 307.8652 0001691 265.6186  94.4463 15.01717977 15852
STARLINK-5496           
1 56886U 23083L   23261.81166571  .00038048  00000+0  28529-2 0  9998
2 56886  43.0023 307.8000 0002915 226.2005 133.8597 15.02046298 15851
STARLINK-6180           
1 56887U 23083M   23261.81620792 -.00000636  00000+0 -31981-4 0  9991
2 56887  43.0004 307.8335 0001010 278.7712  81.3016 15.02541288 15856
STARLINK-6181           
1 56888U 23083N   23261.86499183 -.00000068  00000+0  10115-4 0  9999
2 56888  43.0001 307.3405 0001057 282.0833  77.9890 15.01728415 15860
STARLINK-6169           
1 56889U 23083P   23261.54252502 -.00001079  00000+0 -64791-4 0  9990
2 56889  43.0014 309.2200 0000885 283.2091  76.8653 15.02546805 15010
STARLINK-5528           
1 56890U 23083Q   23261.53364436 -.00000561  00000+0 -26480-4 0  9999
2 56890  43.0002 309.1529 0000828 287.0717  73.0034 15.02549118 15018
STARLINK-6213           
1 56891U 23083R   23261.33976300 -.00003156  00000+0 -21856-3 0  9991
2 56891  43.0005 310.2770 0000890 244.8597 115.2153 15.02556786 15783
STARLINK-6219           
1 56892U 23083S   23261.85805293  .00054358  00000+0  40464-2 0  9994
2 56892  43.0016 307.2898 0001435 281.2219  78.8462 15.02174201 15869
STARLINK-6216           
1 56893U 23083T   23261.53586230  .00001947  00000+0  15911-3 0  9993
2 56893  43.0004 309.1702 0001239 273.6728  86.3973 15.02551394 15935
STARLINK-6144           
1 56894U 23083U   23261.85955195 -.00051212  00000+0 -37693-2 0  9991
2 56894  42.9998 307.2985 0000494 297.1882  62.8910 15.02878822 15985
STARLINK-6208           
1 56895U 23083V   23261.52920624 -.00000858  00000+0 -48440-4 0  9999
2 56895  42.9996 309.1203 0000676 277.2299  82.8466 15.02545314 15818
STARLINK-6202           
1 56896U 23083W   23261.85160499 -.00001294  00000+0 -80751-4 0  9998
2 56896  43.0013 307.2400 0000929 284.4974  75.5766 15.02545027 15970
STARLINK-6200           
1 56897U 23083X   23261.18996573  .00004682  00000+0  36561-3 0  9996
2 56897  43.0025 310.8770 0001110 187.7917 172.2908 15.02092399 15881
STARLINK-6205           
1 56898U 23083Y   23261.84494629 -.00000873  00000+0 -49580-4 0  9991
2 56898  43.0015 307.1899 0001190 268.9152  91.1554 15.02545820 15971
STARLINK-6203           
1 56899U 23083Z   23261.84827546 -.00002214  00000+0 -14888-3 0  9993
2 56899  43.0017 307.2154 0001025 275.6534  84.4192 15.02541533 15975
STARLINK-6207           
1 56900U 23083AA  23261.78217882 -.00000411  00000+0 -15398-4 0  9990
2 56900  43.0005 295.4416 0000922 280.1585  79.9153 15.02533692 15968
STARLINK-6185           
1 56901U 23083AB  23261.84272747 -.00002020  00000+0 -13446-3 0  9998
2 56901  43.0013 307.1737 0000965 272.5096  87.5636 15.02543979 15975
STARLINK-6195           
1 56902U 23083AC  23261.18054910 -.00000750  00000+0 -40457-4 0  9997
2 56902  43.0011 298.6679 0001274 277.8486  82.2212 15.02535469 16011
STARLINK-6192           
1 56903U 23083AD  23261.84201621 -.00000087  00000+0  86649-5 0  9990
2 56903  43.0002 307.1665 0000896 303.7819  56.2938 15.01719461 15976
STARLINK-6193           
1 56904U 23083AE  23261.82201397 -.00000684  00000+0 -35614-4 0  9998
2 56904  43.0012 294.8812 0000886 283.6873  76.3871 15.02534317 16009
STARLINK-6183           
1 56905U 23083AF  23261.58496099 -.00000011  00000+0  14264-4 0  9998
2 56905  43.0008 296.5413 0001299 276.6401  83.4293 15.02539255 15966
STARLINK-6098           
1 56906U 23083AG  23261.43757790 -.00001251  00000+0 -77552-4 0  9998
2 56906  43.0023 297.1592 0000811 284.2912  75.7840 15.02544589 15946
STARLINK-6110           
1 56907U 23083AH  23261.17500108 -.00000262  00000+0 -42999-5 0  9998
2 56907  43.0007 298.6248 0000915 257.7121 102.3619 15.02534352 15101
STARLINK-6186           
1 56908U 23083AJ  23261.16501005 -.00000592  00000+0 -28755-4 0  9994
2 56908  43.0002 298.5484 0000974 263.4474  96.6257 15.02539034 15901
STARLINK-5999           
1 56909U 23083AK  23261.17832921 -.00000927  00000+0 -53574-4 0  9999
2 56909  43.0008 298.6497 0001176 256.2054 103.8657 15.02538632 16013
STARLINK-6179           
1 56910U 23083AL  23261.82534665 -.00000334  00000+0 -96343-5 0  9991
2 56910  43.0011 294.9051 0000921 272.7350  87.3386 15.02539366 16002
STARLINK-6116           
1 56911U 23083AM  23261.50183158 -.00000484  00000+0 -20771-4 0  9991
2 56911  43.0014 296.7794 0001075 277.4505  82.6215 15.02543708 15154
STARLINK-5805           
1 56912U 23083AN  23261.81979474 -.00000149  00000+0  40221-5 0  9990
2 56912  43.0011 294.8624 0000974 272.2158  87.8572 15.02539790 16001
STARLINK-5950           
1 56913U 23083AP  23261.49850468 -.00001554  00000+0 -99997-4 0  9991
2 56913  43.0009 296.7544 0000864 278.7937  81.2807 15.02545659 15958
STARLINK-5961           
1 56914U 23083AQ  23261.81313311  .00000100  00000+0  22437-4 0  9998
2 56914  43.0010 294.8110 0001044 272.1007  87.9716 15.02540841 16003
STARLINK-5965           
1 56915U 23083AR  23261.82756333 -.00000603  00000+0 -29556-4 0  9994
2 56915  43.0030 294.9250 0001463 279.8803  80.1874 15.02538700 16006
STARLINK-5973           
1 56916U 23083AS  23261.80647281 -.00001959  00000+0 -12999-3 0  9991
2 56916  43.0009 294.7562 0000999 272.9764  87.0964 15.02544127 15971
STARLINK-5971           
1 56917U 23083AT  23261.81646311 -.00000688  00000+0 -35881-4 0  9990
2 56917  43.0014 294.8363 0000945 281.2153  78.8583 15.02543101 16005
STARLINK-5951           
1 56918U 23083AU  23261.80536492 -.00002136  00000+0 -14309-3 0  9999
2 56918  43.0016 294.7462 0001008 257.9811 102.0919 15.02540894 16008
STARLINK-5966           
1 56919U 23083AV  23261.81091327 -.00000798  00000+0 -43992-4 0  9997
2 56919  43.0008 294.7904 0001171 269.9849  90.0859 15.02543174 16009
